[
    {
        "Altitude(m)": 611965.1677855435,
        "Argument of Periapsis(deg)": 0.0,
        "Eccentricity": 0.0,
        "Inclination(deg)": 60.0,
        "Latitude(deg)": 59.140108303848216,
        "Longitude(deg)": -71.03023426979064,
        "Mean Anomaly(deg)": -278.1818,
        "RAAN(deg)": 315.0,
        "Satellite Name": "Test1 1391",
        "Satellite Number": 1391,
        "Semi-Major Axis(m)": 6980739.136638005,
        "Time(s)": 0
    },
    {
        "Altitude(m)": 611995.7935448155,
        "Argument of Periapsis(deg)": 0.00010418945913296404,
        "Eccentricity": 0.0,
        "Inclination(deg)": 60.0,
        "Latitude(deg)": 59.28320891996437,
        "Longitude(deg)": -69.89687414506402,
        "Mean Anomaly(deg)": -277.5616938545382,
        "RAAN(deg)": 314.99957995086027,
        "Satellite Name": "Test1 1391",
        "Satellite Number": 1391,
        "Semi-Major Axis(m)": 6980739.136638005,
        "Time(s)": 10
    }
]